[{"OBJECT_NAME":"BLUEBON","OBJECT_ID":"2025-009CH","EPOCH":"2026-03-09T16:52:33.225312","MEAN_MOTION":15.29047254,"ECCENTRICITY":0.00011933,"INCLINATION":97.4017,"RA_OF_ASC_NODE":152.2033,"ARG_OF_PERICENTER":43.39,"MEAN_ANOMALY":316.7434,"EPHEMERIS_TYPE":0,"CLASSIFICATION_TYPE":"U","NORAD_CAT_ID":62688,"ELEMENT_SET_NO":999,"REV_AT_EPOCH":6376,"BSTAR":0.00037313027,"MEAN_MOTION_DOT":0.00010452,"MEAN_MOTION_DDOT":0},{"OBJECT_NAME":"STARLINK-35618","OBJECT_ID":"2025-259B","EPOCH":"2026-03-09T21:52:18.590592","MEAN_MOTION":15.2759128,"ECCENTRICITY":0.0001807,"INCLINATION":43.0012,"RA_OF_ASC_NODE":273.2348,"ARG_OF_PERICENTER":265.3083,"MEAN_ANOMALY":94.7563,"EPHEMERIS_TYPE":0,"CLASSIFICATION_TYPE":"U","NORAD_CAT_ID":66423,"ELEMENT_SET_NO":999,"REV_AT_EPOCH":1952,"BSTAR":0.0008495005,"MEAN_MOTION_DOT":0.00023196,"MEAN_MOTION_DDOT":0}]
